[{"OBJECT_NAME":"STARLINK-4132","OBJECT_ID":"2022-086L","EPOCH":"2026-03-09T13:45:47.209248","MEAN_MOTION":15.08836694,"ECCENTRICITY":0.0001138,"INCLINATION":53.2173,"RA_OF_ASC_NODE":194.5921,"ARG_OF_PERICENTER":104.957,"MEAN_ANOMALY":255.1548,"EPHEMERIS_TYPE":0,"CLASSIFICATION_TYPE":"U","NORAD_CAT_ID":53252,"ELEMENT_SET_NO":999,"REV_AT_EPOCH":20106,"BSTAR":2.4676e-5,"MEAN_MOTION_DOT":1.05e-6,"MEAN_MOTION_DDOT":0},{"OBJECT_NAME":"UPPER FREE FLYER","OBJECT_ID":"2018-099F","EPOCH":"2026-03-09T16:53:56.769792","MEAN_MOTION":15.10728091,"ECCENTRICITY":0.00115819,"INCLINATION":97.4495,"RA_OF_ASC_NODE":120.4613,"ARG_OF_PERICENTER":289.4209,"MEAN_ANOMALY":70.5769,"EPHEMERIS_TYPE":0,"CLASSIFICATION_TYPE":"U","NORAD_CAT_ID":43763,"ELEMENT_SET_NO":999,"REV_AT_EPOCH":39752,"BSTAR":0.00029221901,"MEAN_MOTION_DOT":4.788e-5,"MEAN_MOTION_DDOT":0}]
